[{"OBJECT_NAME":"STARLINK-33651","OBJECT_ID":"2025-076V","EPOCH":"2026-03-09T01:23:27.917664","MEAN_MOTION":15.27609489,"ECCENTRICITY":0.00013675,"INCLINATION":42.9966,"RA_OF_ASC_NODE":325.2776,"ARG_OF_PERICENTER":264.0688,"MEAN_ANOMALY":96.0008,"EPHEMERIS_TYPE":0,"CLASSIFICATION_TYPE":"U","NORAD_CAT_ID":63588,"ELEMENT_SET_NO":999,"REV_AT_EPOCH":5173,"BSTAR":0.0012600074,"MEAN_MOTION_DOT":0.00034605,"MEAN_MOTION_DDOT":0},{"OBJECT_NAME":"FREGAT DEB","OBJECT_ID":"2011-037DJ","EPOCH":"2026-03-09T05:46:54.234336","MEAN_MOTION":14.1723702,"ECCENTRICITY":0.05960905,"INCLINATION":51.3214,"RA_OF_ASC_NODE":17.6938,"ARG_OF_PERICENTER":2.2668,"MEAN_ANOMALY":358.0757,"EPHEMERIS_TYPE":0,"CLASSIFICATION_TYPE":"U","NORAD_CAT_ID":45889,"ELEMENT_SET_NO":999,"REV_AT_EPOCH":24920,"BSTAR":0.025332087,"MEAN_MOTION_DOT":0.00335975,"MEAN_MOTION_DDOT":0}]
